NORAD_CAT_ID,OBJECT_NAME,OBJECT_TYPE,EPOCH,MEAN_MOTION,ECCENTRICITY,INCLINATION,RA_OF_ASC_NODE,ARG_OF_PERICENTER,MEAN_ANOMALY,BSTAR,MEAN_MOTION_DOT,MEAN_MOTION_DDOT,TLE_LINE0,TLE_LINE1,TLE_LINE2,SEMIMAJOR_AXIS,PERIOD,APOGEE,PERIGEE,DECAYED
55932.0,STARLINK-5848,PAYLOAD,2024-03-09 21:47:49,14.98323038,0.0002866,69.9979,304.3066,266.1612,93.9219,0.00017173,1.956e-05,0.0,0 STARLINK-5848,1 55932U 23037U   24069.90820724  .00001956  00000-0  17173-3 0  9995,2 55932  69.9979 304.3066 0002866 266.1612  93.9219 14.98323038 55164,6950.214,96.107,574.071,570.087,0.0
55932.0,STARLINK-5848,PAYLOAD,2024-03-10 13:49:10,14.98325136,0.0002692,69.9988,302.6211,267.6136,92.4715,4.2099e-05,4.09e-06,0.0,0 STARLINK-5848,1 55932U 23037U   24070.57581207  .00000409  00000-0  42099-4 0  9998,2 55932  69.9988 302.6211 0002692 267.6136  92.4715 14.98325136 55268,6950.208,96.107,573.944,570.202,0.0
55932.0,STARLINK-5848,PAYLOAD,2024-03-10 21:49:50,14.98327534,0.0002745,69.9986,301.7803,267.7514,92.3331,-2.4644e-05,-3.87e-06,0.0,0 STARLINK-5848,1 55932U 23037U   24070.90961319 -.00000387  00000-0 -24644-4 0  9994,2 55932  69.9986 301.7803 0002745 267.7514  92.3331 14.98327534 55653,6950.201,96.107,573.973,570.158,0.0
55932.0,STARLINK-5848,PAYLOAD,2024-03-11 09:02:46,14.98328586,0.0002675,69.9984,300.6026,268.5942,91.4911,-2.0383e-06,-1.17e-06,0.0,0 STARLINK-5848,1 55932U 23037U   24071.37693258 -.00000117  00000-0 -20383-5 0  9998,2 55932  69.9984 300.6026 0002675 268.5942  91.4911 14.98328586 55384,6950.197,96.107,573.921,570.203,0.0
55932.0,STARLINK-5848,PAYLOAD,2024-03-11 21:51:51,14.98331947,0.0002994,69.9982,299.2563,268.644,91.4376,-5.586e-06,-1.6e-06,0.0,0 STARLINK-5848,1 55932U 23037U   24071.91100980 -.00000160  00000-0 -55860-5 0  9999,2 55932  69.9982 299.2563 0002994 268.6440  91.4376 14.98331947 55806,6950.187,96.107,574.133,569.971,0.0
55932.0,STARLINK-5848,PAYLOAD,2024-03-12 21:53:52,14.98330837,0.0002862,69.9981,296.7314,270.0788,90.0044,5.045e-05,5.09e-06,0.0,0 STARLINK-5848,1 55932U 23037U   24072.91240795  .00000509  00000-0  50450-4 0  9993,2 55932  69.9981 296.7314 0002862 270.0788  90.0044 14.98330837 55610,6950.19,96.107,574.044,570.066,0.0
55932.0,STARLINK-5848,PAYLOAD,2024-03-13 01:06:08,14.98331516,0.0002853,69.9981,296.3947,270.1594,89.9238,5.519e-05,5.66e-06,0.0,0 STARLINK-5848,1 55932U 23037U   24073.04592725  .00000566  00000-0  55190-4 0  9990,2 55932  69.9981 296.3947 0002853 270.1594  89.9238 14.98331516 55970,6950.188,96.107,574.036,570.07,0.0
55932.0,STARLINK-5848,PAYLOAD,2024-03-13 07:30:40,14.98330527,0.0002848,69.9981,295.7213,270.3302,89.7531,2.908e-05,2.54e-06,0.0,0 STARLINK-5848,1 55932U 23037U   24073.31296817  .00000254  00000-0  29080-4 0  9996,2 55932  69.9981 295.7213 0002848 270.3302  89.7531 14.98330527 55674,6950.191,96.107,574.036,570.077,0.0
55932.0,STARLINK-5848,PAYLOAD,2024-03-13 21:55:52,14.98331414,0.0002849,69.9984,294.2062,271.5355,88.5477,-1.4456e-06,-1.1e-06,0.0,0 STARLINK-5848,1 55932U 23037U   24073.91380768 -.00000110  00000-0 -14456-5 0  9996,2 55932  69.9984 294.2062 0002849 271.5355  88.5477 14.98331414 55767,6950.189,96.107,574.034,570.073,0.0
55932.0,STARLINK-5848,PAYLOAD,2024-03-14 01:08:08,14.9833284,0.0002831,69.9985,293.8695,271.6217,88.4618,1.456e-05,8.1e-07,0.0,0 STARLINK-5848,1 55932U 23037U   24074.04732616  .00000081  00000-0  14560-4 0  9994,2 55932  69.9985 293.8695 0002831 271.6217  88.4618 14.98332840 56125,6950.184,96.107,574.017,570.082,0.0
55932.0,STARLINK-5848,PAYLOAD,2024-03-14 21:57:54,14.98328805,0.0002873,69.9984,291.6808,272.7401,87.3429,-3.5198e-05,-5.13e-06,0.0,0 STARLINK-5848,1 55932U 23037U   24074.91520939 -.00000513  00000-0 -35198-4 0  9995,2 55932  69.9984 291.6808 0002873 272.7401  87.3429 14.98328805 55919,6950.197,96.107,574.058,570.065,0.0
55932.0,STARLINK-5848,PAYLOAD,2024-03-14 23:34:02,14.98329136,0.0002858,69.9984,291.5125,272.5896,87.4936,-2.8841e-05,-4.37e-06,0.0,0 STARLINK-5848,1 55932U 23037U   24074.98196903 -.00000437  00000-0 -28841-4 0  9994,2 55932  69.9984 291.5125 0002858 272.5896  87.4936 14.98329136 56260,6950.196,96.107,574.047,570.074,0.0
55932.0,STARLINK-5848,PAYLOAD,2024-03-15 21:59:54,14.9832873,0.0002806,69.9986,289.1557,267.0235,93.0603,2.6457e-06,-6.1e-07,0.0,0 STARLINK-5848,1 55932U 23037U   24075.91660800 -.00000061  00000-0  26457-5 0  9994,2 55932  69.9986 289.1557 0002806 267.0235  93.0603 14.98328730 56064,6950.197,96.107,574.012,570.112,0.0
55932.0,STARLINK-5848,PAYLOAD,2024-03-15 23:36:03,14.98328819,0.0002892,69.9983,288.987,268.3834,91.6994,-4.7839e-06,-1.5e-06,0.0,0 STARLINK-5848,1 55932U 23037U   24075.98336810 -.00000150  00000-0 -47839-5 0  9999,2 55932  69.9983 288.9870 0002892 268.3834  91.6994 14.98328819 56414,6950.197,96.107,574.072,570.052,0.0
55932.0,STARLINK-5848,PAYLOAD,2024-03-16 22:01:55,14.98328699,0.0002978,69.9976,286.6307,268.0626,92.0191,1.5594e-05,9.3e-07,0.0,0 STARLINK-5848,1 55932U 23037U   24076.91800805  .00000093  00000-0  15594-4 0  9999,2 55932  69.9976 286.6307 0002978 268.0626  92.0191 14.98328699 56215,6950.197,96.107,574.132,569.992,0.0
55932.0,STARLINK-5848,PAYLOAD,2024-03-16 23:38:03,14.98329155,0.0002969,69.9977,286.4624,267.8846,92.1973,1.9633e-05,1.41e-06,0.0,0 STARLINK-5848,1 55932U 23037U   24076.98476768  .00000141  00000-0  19633-4 0  9995,2 55932  69.9977 286.4624 0002969 267.8846  92.1973 14.98329155 56562,6950.196,96.107,574.124,569.997,0.0
55932.0,STARLINK-5848,PAYLOAD,2024-03-17 14:03:16,14.98331397,0.0002993,69.9975,284.9475,268.3436,91.738,2.3201e-05,1.84e-06,0.0,0 STARLINK-5848,1 55932U 23037U   24077.58560591  .00000184  00000-0  23201-4 0  9993,2 55932  69.9975 284.9475 0002993 268.3436  91.7380 14.98331397 56316,6950.189,96.107,574.134,569.973,0.0
55932.0,STARLINK-5848,PAYLOAD,2024-03-17 22:03:56,14.98333022,0.0003006,69.9976,284.1059,268.1871,91.8944,3.9549e-05,3.79e-06,0.0,0 STARLINK-5848,1 55932U 23037U   24077.91940390  .00000379  00000-0  39549-4 0  9997,2 55932  69.9976 284.1059 0003006 268.1871  91.8944 14.98333022 56363,6950.184,96.107,574.138,569.959,0.0
55932.0,STARLINK-5848,PAYLOAD,2024-03-17 23:40:04,14.98333765,0.0003027,69.9976,283.9371,269.7208,90.3604,4.3307e-05,4.24e-06,0.0,0 STARLINK-5848,1 55932U 23037U   24077.98616325  .00000424  00000-0  43307-4 0  9990,2 55932  69.9976 283.9371 0003027 269.7208  90.3604 14.98333765 56711,6950.181,96.107,574.15,569.942,0.0
55932.0,STARLINK-5848,PAYLOAD,2024-03-18 22:05:57,14.98330032,0.0003028,69.9976,281.5801,270.9196,89.1616,-6.9676e-06,-1.76e-06,0.0,0 STARLINK-5848,1 55932U 23037U   24078.92080593 -.00000176  00000-0 -69676-5 0  9991,2 55932  69.9976 281.5801 0003028 270.9196  89.1616 14.98330032 56515,6950.193,96.107,574.162,569.953,0.0
55932.0,STARLINK-5848,PAYLOAD,2024-03-18 23:42:05,14.98330846,0.0003004,69.9976,281.4111,270.0611,90.0204,2.1855e-06,-6.7e-07,0.0,0 STARLINK-5848,1 55932U 23037U   24078.98756510 -.00000067  00000-0  21855-5 0  9991,2 55932  69.9976 281.4111 0003004 270.0611  90.0204 14.98330846 56860,6950.19,96.107,574.143,569.967,0.0
55932.0,STARLINK-5848,PAYLOAD,2024-03-19 20:31:48,14.98339806,0.0002797,70.0006,279.2253,213.4197,146.6786,0.00049335,5.8e-05,0.0,0 STARLINK-5848,1 55932U 23037U   24079.85541994  .00005800  00000-0  49335-3 0  9996,2 55932  70.0006 279.2253 0002797 213.4197 146.6786 14.98339806 56999,6950.163,96.106,573.972,570.084,0.0
55932.0,STARLINK-5848,PAYLOAD,2024-03-19 23:44:05,14.98330933,0.000284,69.9977,278.8853,289.1642,70.9209,-7.1521e-05,-9.46e-06,0.0,0 STARLINK-5848,1 55932U 23037U   24079.98895702 -.00000946  00000-0 -71521-4 0  9990,2 55932  69.9977 278.8853 0002840 289.1642  70.9209 14.98330933 57013,6950.19,96.107,574.029,570.081,0.0
55932.0,STARLINK-5848,PAYLOAD,2024-03-20 14:09:18,14.98329716,0.0002976,69.9966,277.3695,264.5384,95.5436,-0.00016523,-2.064e-05,0.0,0 STARLINK-5848,1 55932U 23037U   24080.58979835 -.00002064  00000-0 -16523-3 0  9991,2 55932  69.9966 277.3695 0002976 264.5384  95.5436 14.98329716 56762,6950.194,96.107,574.127,569.99,0.0
55932.0,STARLINK-5848,PAYLOAD,2024-03-20 22:09:58,14.98327341,0.0003116,69.9976,276.5291,266.856,93.2243,-0.00015769,-1.974e-05,0.0,0 STARLINK-5848,1 55932U 23037U   24080.92359926 -.00001974  00000-0 -15769-3 0  9992,2 55932  69.9976 276.5291 0003116 266.8560  93.2243 14.98327341 56813,6950.201,96.107,574.232,569.9,0.0
55932.0,STARLINK-5848,PAYLOAD,2024-03-21 12:35:11,14.98336913,0.0002753,69.9983,275.0154,256.5633,103.5219,-0.00036865,-4.49e-05,0.0,0 STARLINK-5848,1 55932U 23037U   24081.52444123 -.00004490  00000-0 -36865-3 0  9999,2 55932  69.9983 275.0154 0002753 256.5633 103.5219 14.98336913 57247,6950.172,96.107,573.95,570.123,0.0
55932.0,STARLINK-5848,PAYLOAD,2024-03-21 14:11:19,14.98335104,0.0002892,69.9981,274.8471,262.1312,97.9519,-0.00033698,-4.112e-05,0.0,0 STARLINK-5848,1 55932U 23037U   24081.59120110 -.00004112  00000-0 -33698-3 0  9995,2 55932  69.9981 274.8471 0002892 262.1312  97.9519 14.98335104 56918,6950.177,96.107,574.052,570.032,0.0
55932.0,STARLINK-5848,PAYLOAD,2024-03-21 22:11:59,14.98335277,0.000285,69.9979,274.0049,261.7298,98.3538,-0.00032629,-3.985e-05,0.0,0 STARLINK-5848,1 55932U 23037U   24081.92499982 -.00003985  00000-0 -32629-3 0  9998,2 55932  69.9979 274.0049 0002850 261.7298  98.3538 14.98335277 56962,6950.177,96.107,574.022,570.061,0.0
55932.0,STARLINK-5848,PAYLOAD,2024-03-22 12:37:12,14.98318811,0.0003064,69.9977,272.4897,264.7643,95.3167,6.2259e-05,6.5e-06,0.0,0 STARLINK-5848,1 55932U 23037U   24082.52584053  .00000650  00000-0  62259-4 0  9996,2 55932  69.9977 272.4897 0003064 264.7643  95.3167 14.98318811 57396,6950.227,96.108,574.222,569.963,0.0
55932.0,STARLINK-5848,PAYLOAD,2024-03-22 14:13:20,14.9831965,0.0003074,69.9977,272.3212,264.6906,95.3902,6.8965e-05,7.3e-06,0.0,0 STARLINK-5848,1 55932U 23037U   24082.59260024  .00000730  00000-0  68965-4 0  9991,2 55932  69.9977 272.3212 0003074 264.6906  95.3902 14.98319650 57061,6950.225,96.108,574.226,569.953,0.0
